{"type": "FeatureCollection", "features": [ {"type": "Feature", "properties": {"norad_id": 29940, "name": "FENGYUN 1C DEB", "group": "fengyun-1c-debris", "lat": 79.69303410646016, "lon": -128.53089657573688, "alt_km": 768.6901949408839, "timestamp": "2025-12-11T05:00:26.581202+00:00", "meta": {"OBJECT_NAME": "FENGYUN 1C DEB", "OBJECT_ID": "1999-025JN", "EPOCH": "2025-12-10T06:52:00.257376", "MEAN_MOTION": 14.18811625, "ECCENTRICITY": 0.0074712, "INCLINATION": 98.6214, "RA_OF_ASC_NODE": 354.0339, "ARG_OF_PERICENTER": 106.8104, "MEAN_ANOMALY": 319.6095, "EPHEMERIS_TYPE": 0, "CLASSIFICATION_TYPE": "U", "NORAD_CAT_ID": 29940, "ELEMENT_SET_NO": 999, "REV_AT_EPOCH": 97453, "BSTAR": 0.00085821, "MEAN_MOTION_DOT": 1.793e-05, "MEAN_MOTION_DDOT": 0}, "tle": {"line1": "1 29940U 99025JN  25344.28611409  .00001793  00000+0  85821-3 0  9994", "line2": "2 29940  98.6214 354.0339 0074712 106.8104 319.6095 14.18811625974532"}}, "geometry": {"type": "Point", "coordinates": [-128.53089657573688, 79.69303410646016]}}, {"type": "Feature", "properties": {"norad_id": 29942, "name": "FENGYUN 1C DEB", "group": "fengyun-1c-debris", "lat": -70.87167592727786, "lon": -154.93320794147752, "alt_km": 766.7006014807712, "timestamp": "2025-12-11T05:00:26.581212+00:00", "meta": {"OBJECT_NAME": "FENGYUN 1C DEB", "OBJECT_ID": "1999-025JQ", "EPOCH": "2025-12-10T14:23:40.857216", "MEAN_MOTION": 14.30400589, "ECCENTRICITY": 0.0048746, "INCLINATION": 98.6369, "RA_OF_ASC_NODE": 50.4532, "ARG_OF_PERICENTER": 282.4467, "MEAN_ANOMALY": 77.1263, "EPHEMERIS_TYPE": 0, "CLASSIFICATION_TYPE": "U", "NORAD_CAT_ID": 29942, "ELEMENT_SET_NO": 999, "REV_AT_EPOCH": 97838, "BSTAR": 0.001068, "MEAN_MOTION_DOT": 2.769e-05, "MEAN_MOTION_DDOT": 0}, "tle": {"line1": "1 29942U 99025JQ  25344.59977844  .00002769  00000+0  10680-2 0  9992", "line2": "2 29942  98.6369  50.4532 0048746 282.4467  77.1263 14.30400589978385"}}, "geometry": {"type": "Point", "coordinates": [-154.93320794147752, -70.87167592727786]}}, {"type": "Feature", "properties": {"norad_id": 29943, "name": "FENGYUN 1C DEB", "group": "fengyun-1c-debris", "lat": -42.54257051579382, "lon": 1.115769145233369, "alt_km": 864.9813360249318, "timestamp": "2025-12-11T05:00:26.581223+00:00", "meta": {"OBJECT_NAME": "FENGYUN 1C DEB", "OBJECT_ID": "1999-025JR", "EPOCH": "2025-12-10T12:44:16.633248", "MEAN_MOTION": 14.09670582, "ECCENTRICITY": 0.00348078, "INCLINATION": 98.7269, "RA_OF_ASC_NODE": 352.3554, "ARG_OF_PERICENTER": 233.402, "MEAN_ANOMALY": 244.8675, "EPHEMERIS_TYPE": 0, "CLASSIFICATION_TYPE": "U", "NORAD_CAT_ID": 29943, "ELEMENT_SET_NO": 999, "REV_AT_EPOCH": 97275, "BSTAR": 6.8276102e-05, "MEAN_MOTION_DOT": 7.8e-07, "MEAN_MOTION_DDOT": 0}, "tle": {"line1": "1 29943U 99025JR  25344.53074807  .00000078  00000+0  68276-4 0  9991", "line2": "2 29943  98.7269 352.3554 0034807 233.4020 244.8675 14.09670582972751"}}, "geometry": {"type": "Point", "coordinates": [1.115769145233369, -42.54257051579382]}}, {"type": "Feature", "properties": {"norad_id": 29944, "name": "FENGYUN 1C DEB", "group": "fengyun-1c-debris", "lat": 56.160061605301536, "lon": -94.59353869903643, "alt_km": 716.7403444049924, "timestamp": "2025-12-11T05:00:26.581232+00:00", "meta": {"OBJECT_NAME": "FENGYUN 1C DEB", "OBJECT_ID": "1999-025JS", "EPOCH": "2025-12-10T09:22:12.334656", "MEAN_MOTION": 14.87448859, "ECCENTRICITY": 0.01665113, "INCLINATION": 99.0027, "RA_OF_ASC_NODE": 278.157, "ARG_OF_PERICENTER": 239.5627, "MEAN_ANOMALY": 118.9045, "EPHEMERIS_TYPE": 0, "CLASSIFICATION_TYPE": "U", "NORAD_CAT_ID": 29944, "ELEMENT_SET_NO": 999, "REV_AT_EPOCH": 419, "BSTAR": 0.001105275, "MEAN_MOTION_DOT": 0.00012864, "MEAN_MOTION_DDOT": 0}, "tle": {"line1": "1 29944U 99025JS  25344.39042054  .00012864  00000+0  11053-2 0  9990", "line2": "2 29944  99.0027 278.1570 0166511 239.5627 118.9045 14.87448859  4191"}}, "geometry": {"type": "Point", "coordinates": [-94.59353869903643, 56.160061605301536]}}, {"type": "Feature", "properties": {"norad_id": 29945, "name": "FENGYUN 1C DEB", "group": "fengyun-1c-debris", "lat": -6.204136437419845, "lon": -172.0675123949586, "alt_km": 900.7384489974083, "timestamp": "2025-12-11T05:00:26.581243+00:00", "meta": {"OBJECT_NAME": "FENGYUN 1C DEB", "OBJECT_ID": "1999-025JT", "EPOCH": "2025-12-10T21:51:33.156288", "MEAN_MOTION": 14.05571199, "ECCENTRICITY": 0.00310286, "INCLINATION": 98.7921, "RA_OF_ASC_NODE": 8.6076, "ARG_OF_PERICENTER": 7.6589, "MEAN_ANOMALY": 112.2437, "EPHEMERIS_TYPE": 0, "CLASSIFICATION_TYPE": "U", "NORAD_CAT_ID": 29945, "ELEMENT_SET_NO": 999, "REV_AT_EPOCH": 96952, "BSTAR": 5.8272063e-05, "MEAN_MOTION_DOT": 5.2e-07, "MEAN_MOTION_DDOT": 0}, "tle": {"line1": "1 29945U 99025JT  25344.91080042  .00000052  00000+0  58272-4 0  9990", "line2": "2 29945  98.7921   8.6076 0031028   7.6589 112.2437 14.05571199969526"}}, "geometry": {"type": "Point", "coordinates": [-172.0675123949586, -6.204136437419845]}}, {"type": "Feature", "properties": {"norad_id": 29946, "name": "FENGYUN 1C DEB", "group": "fengyun-1c-debris", "lat": -12.51796310589206, "lon": 155.52350993810967, "alt_km": 922.7913639027538, "timestamp": "2025-12-11T05:00:26.581252+00:00", "meta": {"OBJECT_NAME": "FENGYUN 1C DEB", "OBJECT_ID": "1999-025JU", "EPOCH": "2025-12-10T11:37:24.015936", "MEAN_MOTION": 14.08251463, "ECCENTRICITY": 0.00807669, "INCLINATION": 98.7799, "RA_OF_ASC_NODE": 336.7851, "ARG_OF_PERICENTER": 349.8501, "MEAN_ANOMALY": 132.9671, "EPHEMERIS_TYPE": 0, "CLASSIFICATION_TYPE": "U", "NORAD_CAT_ID": 29946, "ELEMENT_SET_NO": 999, "REV_AT_EPOCH": 97015, "BSTAR": 0.00040737196, "MEAN_MOTION_DOT": 6.74e-06, "MEAN_MOTION_DDOT": 0}, "tle": {"line1": "1 29946U 99025JU  25344.48430574  .00000674  00000+0  40737-3 0  9998", "line2": "2 29946  98.7799 336.7851 0080766 349.8501 132.9671 14.08251463970156"}}, "geometry": {"type": "Point", "coordinates": [155.52350993810967, -12.51796310589206]}}, {"type": "Feature", "properties": {"norad_id": 29947, "name": "FENGYUN 1C DEB", "group": "fengyun-1c-debris", "lat": -21.688955441363074, "lon": -167.74094105161242, "alt_km": 881.597033893233, "timestamp": "2025-12-11T05:00:26.581263+00:00", "meta": {"OBJECT_NAME": "FENGYUN 1C DEB", "OBJECT_ID": "1999-025JV", "EPOCH": "2025-12-10T00:48:37.607040", "MEAN_MOTION": 14.030639, "ECCENTRICITY": 0.00408408, "INCLINATION": 98.8366, "RA_OF_ASC_NODE": 14.6657, "ARG_OF_PERICENTER": 128.2346, "MEAN_ANOMALY": 262.1201, "EPHEMERIS_TYPE": 0, "CLASSIFICATION_TYPE": "U", "NORAD_CAT_ID": 29947, "ELEMENT_SET_NO": 999, "REV_AT_EPOCH": 96712, "BSTAR": 0.00045051282, "MEAN_MOTION_DOT": 6.63e-06, "MEAN_MOTION_DDOT": 0}, "tle": {"line1": "1 29947U 99025JV  25344.03376860  .00000663  00000+0  45051-3 0  9999", "line2": "2 29947  98.8366  14.6657 0040840 128.2346 262.1201 14.03063900967129"}}, "geometry": {"type": "Point", "coordinates": [-167.74094105161242, -21.688955441363074]}}, {"type": "Feature", "properties": {"norad_id": 29948, "name": "FENGYUN 1C DEB", "group": "fengyun-1c-debris", "lat": 49.818891560887174, "lon": -39.17448864364251, "alt_km": 928.0447605286672, "timestamp": "2025-12-11T05:00:26.581273+00:00", "meta": {"OBJECT_NAME": "FENGYUN 1C DEB", "OBJECT_ID": "1999-025JW", "EPOCH": "2025-12-10T17:41:32.912736", "MEAN_MOTION": 14.06189993, "ECCENTRICITY": 0.00836942, "INCLINATION": 98.8239, "RA_OF_ASC_NODE": 330.9651, "ARG_OF_PERICENTER": 239.2834, "MEAN_ANOMALY": 305.9885, "EPHEMERIS_TYPE": 0, "CLASSIFICATION_TYPE": "U", "NORAD_CAT_ID": 29948, "ELEMENT_SET_NO": 999, "REV_AT_EPOCH": 96948, "BSTAR": 0.0001890383, "MEAN_MOTION_DOT": 2.77e-06, "MEAN_MOTION_DDOT": 0}, "tle": {"line1": "1 29948U 99025JW  25344.73718649  .00000277  00000+0  18904-3 0  9990", "line2": "2 29948  98.8239 330.9651 0083694 239.2834 305.9885 14.06189993969485"}}, "geometry": {"type": "Point", "coordinates": [-39.17448864364251, 49.818891560887174]}}, {"type": "Feature", "properties": {"norad_id": 29949, "name": "FENGYUN 1C DEB", "group": "fengyun-1c-debris", "lat": 0.31204423014126986, "lon": 0.8929350422820994, "alt_km": 862.3170013698336, "timestamp": "2025-12-11T05:00:26.581338+00:00", "meta": {"OBJECT_NAME": "FENGYUN 1C DEB", "OBJECT_ID": "1999-025JX", "EPOCH": "2025-12-10T19:37:32.007648", "MEAN_MOTION": 14.0682533, "ECCENTRICITY": 0.00232956, "INCLINATION": 98.7624, "RA_OF_ASC_NODE": 0.5624, "ARG_OF_PERICENTER": 311.1497, "MEAN_ANOMALY": 230.389, "EPHEMERIS_TYPE": 0, "CLASSIFICATION_TYPE": "U", "NORAD_CAT_ID": 29949, "ELEMENT_SET_NO": 999, "REV_AT_EPOCH": 97080, "BSTAR": 6.7098134e-05, "MEAN_MOTION_DOT": 6.9e-07, "MEAN_MOTION_DDOT": 0}, "tle": {"line1": "1 29949U 99025JX  25344.81773157  .00000069  00000+0  67098-4 0  9993", "line2": "2 29949  98.7624   0.5624 0023295 311.1497 230.3890 14.06825330970806"}}, "geometry": {"type": "Point", "coordinates": [0.8929350422820994, 0.31204423014126986]}}, {"type": "Feature", "properties": {"norad_id": 29950, "name": "FENGYUN 1C DEB", "group": "fengyun-1c-debris", "lat": 3.6884538162331837, "lon": -163.10286450672402, "alt_km": 852.7540293597194, "timestamp": "2025-12-11T05:00:26.581350+00:00", "meta": {"OBJECT_NAME": "FENGYUN 1C DEB", "OBJECT_ID": "1999-025JY", "EPOCH": "2025-12-10T20:31:02.013024", "MEAN_MOTION": 14.10332787, "ECCENTRICITY": 0.00322549, "INCLINATION": 98.7413, "RA_OF_ASC_NODE": 15.985, "ARG_OF_PERICENTER": 247.5877, "MEAN_ANOMALY": 293.8218, "EPHEMERIS_TYPE": 0, "CLASSIFICATION_TYPE": "U", "NORAD_CAT_ID": 29950, "ELEMENT_SET_NO": 999, "REV_AT_EPOCH": 97264, "BSTAR": 0.00019536041, "MEAN_MOTION_DOT": 3.05e-06, "MEAN_MOTION_DDOT": 0}, "tle": {"line1": "1 29950U 99025JY  25344.85488441  .00000305  00000+0  19536-3 0  9994", "line2": "2 29950  98.7413  15.9850 0032254 247.5877 293.8218 14.10332787972640"}}, "geometry": {"type": "Point", "coordinates": [-163.10286450672402, 3.6884538162331837]}}]}